start=new Date('2022-10-03T00:00:00.000Z').valueOf();
sats=[{"REV_AT_EPOCH":"2149","PERIAPSIS":"538.458","CENTER_NAME":"EARTH","MEAN_ANOMALY":"304.2678","GP_ID":"214051527","ECCENTRICITY":"0.00018820","INCLINATION":"53.2189","MEAN_MOTION":"15.08835077","CLASSIFICATION_TYPE":"U","MEAN_MOTION_DOT":"-0.00001789","FILE":"3589751","TLE_LINE1":"1 52628U 22052AG  22275.83934856 -.00001789  00000-0 -94324-4 0  9991","ARG_OF_PERICENTER":"55.8492","BSTAR":"-0.00009432400000","EPHEMERIS_TYPE":"0","ELEMENT_SET_NO":"999","EPOCH":"2022-10-02T20:08:39.715584","MEAN_MOTION_DDOT":"0.0000000000000","DECAY_DATE":null,"SEMIMAJOR_AXIS":"6917.895","MEAN_ELEMENT_THEORY":"SGP4","TIME_SYSTEM":"UTC","LAUNCH_DATE":"2022-05-14","OBJECT_ID":"2022-052AG","SITE":"AFETR","REF_FRAME":"TEME","PERIOD":"95.438","TLE_LINE2":"2 52628  53.2189 152.8759 0001882  55.8492 304.2678 15.08835077 21492","OBJECT_NAME":"STARLINK-4001","RA_OF_ASC_NODE":"152.8759","COUNTRY_CODE":"US","RCS_SIZE":"LARGE","APOAPSIS":"541.062","OBJECT_TYPE":"PAYLOAD","NORAD_CAT_ID":"52628"},{"NORAD_CAT_ID":"52629","OBJECT_TYPE":"PAYLOAD","COUNTRY_CODE":"US","RA_OF_ASC_NODE":"137.8051","OBJECT_NAME":"STARLINK-4022","APOAPSIS":"540.746","RCS_SIZE":"LARGE","PERIOD":"95.438","TLE_LINE2":"2 52629  53.2183 137.8051 0001441  52.9825 307.1299 15.08838845 21705","OBJECT_ID":"2022-052AH","REF_FRAME":"TEME","SITE":"AFETR","TIME_SYSTEM":"UTC","LAUNCH_DATE":"2022-05-14","DECAY_DATE":null,"MEAN_MOTION_DDOT":"0.0000000000000","MEAN_ELEMENT_THEORY":"SGP4","SEMIMAJOR_AXIS":"6917.884","BSTAR":"0.00005949600000","ELEMENT_SET_NO":"999","EPHEMERIS_TYPE":"0","EPOCH":"2022-10-02T20:29:10.721184","FILE":"3589751","ARG_OF_PERICENTER":"52.9825","TLE_LINE1":"1 52629U 22052AH  22275.85359631  .00000659  00000-0  59496-4 0  9990","INCLINATION":"53.2183","MEAN_MOTION":"15.08838845","CLASSIFICATION_TYPE":"U","MEAN_MOTION_DOT":"0.00000659","ECCENTRICITY":"0.00014410","GP_ID":"214051676","MEAN_ANOMALY":"307.1299","CENTER_NAME":"EARTH","PERIAPSIS":"538.752","REV_AT_EPOCH":"2170"},{"ECCENTRICITY":"0.00020540","CLASSIFICATION_TYPE":"U","MEAN_MOTION_DOT":"-0.00001925","MEAN_MOTION":"15.08828285","INCLINATION":"53.2197","ARG_OF_PERICENTER":"45.9014","TLE_LINE1":"1 52630U 22052AJ  22275.86464831 -.00001925  00000-0 -10287-3 0  9995","FILE":"3589751","EPOCH":"2022-10-02T20:45:05.613984","ELEMENT_SET_NO":"999","EPHEMERIS_TYPE":"0","BSTAR":"-0.00010287000000","PERIAPSIS":"538.360","REV_AT_EPOCH":"2170","MEAN_ANOMALY":"314.2147","CENTER_NAME":"EARTH","GP_ID":"214051780","APOAPSIS":"541.202","RCS_SIZE":"LARGE","COUNTRY_CODE":"US","OBJECT_NAME":"STARLINK-3989","RA_OF_ASC_NODE":"137.7608","OBJECT_TYPE":"PAYLOAD","NORAD_CAT_ID":"52630","SEMIMAJOR_AXIS":"6917.916","MEAN_ELEMENT_THEORY":"SGP4","DECAY_DATE":null,"MEAN_MOTION_DDOT":"0.0000000000000","LAUNCH_DATE":"2022-05-14","TIME_SYSTEM":"UTC","REF_FRAME":"TEME","SITE":"AFETR","OBJECT_ID":"2022-052AJ","TLE_LINE2":"2 52630  53.2197 137.7608 0002054  45.9014 314.2147 15.08828285 21700","PERIOD":"95.438"},{"BSTAR":"0.00003346000000","EPHEMERIS_TYPE":"0","ELEMENT_SET_NO":"999","EPOCH":"2022-10-02T20:23:53.409408","FILE":"3589751","ARG_OF_PERICENTER":"58.4179","TLE_LINE1":"1 52631U 22052AK  22275.84992372  .00000245  00000-0  33460-4 0  9991","MEAN_MOTION":"15.08842768","INCLINATION":"53.2180","CLASSIFICATION_TYPE":"U","MEAN_MOTION_DOT":"0.00000245","ECCENTRICITY":"0.00014730","GP_ID":"214052518","CENTER_NAME":"EARTH","MEAN_ANOMALY":"301.6957","REV_AT_EPOCH":"2171","PERIAPSIS":"538.718","NORAD_CAT_ID":"52631","OBJECT_TYPE":"PAYLOAD","OBJECT_NAME":"STARLINK-3794","RA_OF_ASC_NODE":"137.8224","COUNTRY_CODE":"US","RCS_SIZE":"LARGE","APOAPSIS":"540.756","PERIOD":"95.437","TLE_LINE2":"2 52631  53.2180 137.8224 0001473  58.4179 301.6957 15.08842768 21715","OBJECT_ID":"2022-052AK","SITE":"AFETR","REF_FRAME":"TEME","TIME_SYSTEM":"UTC","LAUNCH_DATE":"2022-05-14","MEAN_MOTION_DDOT":"0.0000000000000","DECAY_DATE":null,"SEMIMAJOR_AXIS":"6917.872","MEAN_ELEMENT_THEORY":"SGP4"},{"RCS_SIZE":"LARGE","APOAPSIS":"540.744","OBJECT_NAME":"STARLINK-3995","RA_OF_ASC_NODE":"137.7648","COUNTRY_CODE":"US","OBJECT_TYPE":"PAYLOAD","NORAD_CAT_ID":"52632","MEAN_ELEMENT_THEORY":"SGP4","SEMIMAJOR_AXIS":"6917.889","MEAN_MOTION_DDOT":"0.0000000000000","DECAY_DATE":null,"LAUNCH_DATE":"2022-05-14","TIME_SYSTEM":"UTC","SITE":"AFETR","REF_FRAME":"TEME","OBJECT_ID":"2022-052AL","TLE_LINE2":"2 52632  53.2161 137.7648 0001432  48.0884 312.0230 15.08837318 21712","PERIOD":"95.438","ECCENTRICITY":"0.00014320","CLASSIFICATION_TYPE":"U","MEAN_MOTION_DOT":"-0.00002057","INCLINATION":"53.2161","MEAN_MOTION":"15.08837318","ARG_OF_PERICENTER":"48.0884","TLE_LINE1":"1 52632U 22052AL  22275.86097163 -.00002057  00000-0 -11119-3 0  9999","FILE":"3589751","EPHEMERIS_TYPE":"0","ELEMENT_SET_NO":"999","EPOCH":"2022-10-02T20:39:47.948832","BSTAR":"-0.00011119000000","REV_AT_EPOCH":"2171","PERIAPSIS":"538.763","CENTER_NAME":"EARTH","MEAN_ANOMALY":"312.0230","GP_ID":"214051943"},{"OBJECT_TYPE":"PAYLOAD","NORAD_CAT_ID":"52633","OBJECT_NAME":"STARLINK-3994","RA_OF_ASC_NODE":"137.8610","COUNTRY_CODE":"US","RCS_SIZE":"LARGE","APOAPSIS":"540.747","OBJECT_ID":"2022-052AM","SITE":"AFETR","REF_FRAME":"TEME","PERIOD":"95.438","TLE_LINE2":"2 52633  53.2186 137.8610 0001414  66.3096 293.8044 15.08832186 21715","MEAN_MOTION_DDOT":"0.0000000000000","DECAY_DATE":null,"MEAN_ELEMENT_THEORY":"SGP4","SEMIMAJOR_AXIS":"6917.904","TIME_SYSTEM":"UTC","LAUNCH_DATE":"2022-05-14","FILE":"3589751","ARG_OF_PERICENTER":"66.3096","TLE_LINE1":"1 52633U 22052AM  22275.83888052 -.00001349  00000-0 -66723-4 0  9997","BSTAR":"-0.00006672300000","ELEMENT_SET_NO":"999","EPHEMERIS_TYPE":"0","EPOCH":"2022-10-02T20:07:59.276928","ECCENTRICITY":"0.00014140","INCLINATION":"53.2186","MEAN_MOTION":"15.08832186","MEAN_MOTION_DOT":"-0.00001349","CLASSIFICATION_TYPE":"U","GP_ID":"214052093","REV_AT_EPOCH":"2171","PERIAPSIS":"538.791","CENTER_NAME":"EARTH","MEAN_ANOMALY":"293.8044"},{"LAUNCH_DATE":"2022-05-14","TIME_SYSTEM":"UTC","SEMIMAJOR_AXIS":"6917.875","MEAN_ELEMENT_THEORY":"SGP4","MEAN_MOTION_DDOT":"0.0000000000000","DECAY_DATE":null,"TLE_LINE2":"2 52634  53.2174 137.8179 0001705  52.8245 307.2903 15.08841672 21705","PERIOD":"95.437","SITE":"AFETR","REF_FRAME":"TEME","OBJECT_ID":"2022-052AN","RCS_SIZE":"LARGE","APOAPSIS":"540.920","RA_OF_ASC_NODE":"137.8179","OBJECT_NAME":"STARLINK-3974","COUNTRY_CODE":"US","NORAD_CAT_ID":"52634","OBJECT_TYPE":"PAYLOAD","CENTER_NAME":"EARTH","MEAN_ANOMALY":"307.2903","REV_AT_EPOCH":"2170","PERIAPSIS":"538.561","GP_ID":"214051364","CLASSIFICATION_TYPE":"U","MEAN_MOTION_DOT":"0.00000640","MEAN_MOTION":"15.08841672","INCLINATION":"53.2174","ECCENTRICITY":"0.00017050","EPOCH":"2022-10-02T20:25:15.161088","ELEMENT_SET_NO":"999","EPHEMERIS_TYPE":"0","BSTAR":"0.00005828800000","TLE_LINE1":"1 52634U 22052AN  22275.85086992  .00000640  00000-0  58288-4 0  9991","ARG_OF_PERICENTER":"52.8245","FILE":"3589751"},{"MEAN_MOTION_DOT":"-0.00001559","CLASSIFICATION_TYPE":"U","MEAN_MOTION":"15.08850431","INCLINATION":"53.2159","ECCENTRICITY":"0.00017660","ELEMENT_SET_NO":"999","EPHEMERIS_TYPE":"0","EPOCH":"2022-10-02T21:18:11.919744","BSTAR":"-0.00007982900000","TLE_LINE1":"1 52635U 22052AP  22275.88763796 -.00001559  00000-0 -79829-4 0  9995","ARG_OF_PERICENTER":"47.2988","FILE":"3589751","MEAN_ANOMALY":"312.8153","CENTER_NAME":"EARTH","PERIAPSIS":"538.492","REV_AT_EPOCH":"2185","GP_ID":"214052262","APOAPSIS":"540.935","RCS_SIZE":"LARGE","COUNTRY_CODE":"US","OBJECT_NAME":"STARLINK-3978","RA_OF_ASC_NODE":"127.6514","NORAD_CAT_ID":"52635","OBJECT_TYPE":"PAYLOAD","LAUNCH_DATE":"2022-05-14","TIME_SYSTEM":"UTC","SEMIMAJOR_AXIS":"6917.849","MEAN_ELEMENT_THEORY":"SGP4","DECAY_DATE":null,"MEAN_MOTION_DDOT":"0.0000000000000","TLE_LINE2":"2 52635  53.2159 127.6514 0001766  47.2988 312.8153 15.08850431 21856","PERIOD":"95.437","REF_FRAME":"TEME","SITE":"AFETR","OBJECT_ID":"2022-052AP"},{"ECCENTRICITY":"0.00015380","INCLINATION":"53.2171","MEAN_MOTION":"15.08835133","CLASSIFICATION_TYPE":"U","MEAN_MOTION_DOT":"-0.00001822","FILE":"3589751","TLE_LINE1":"1 52636U 22052AQ  22275.84624056 -.00001822  00000-0 -96450-4 0  9999","ARG_OF_PERICENTER":"68.3023","BSTAR":"-0.00009645000000","ELEMENT_SET_NO":"999","EPHEMERIS_TYPE":"0","EPOCH":"2022-10-02T20:18:35.184384","PERIAPSIS":"538.696","REV_AT_EPOCH":"2170","MEAN_ANOMALY":"291.8133","CENTER_NAME":"EARTH","GP_ID":"214051528","COUNTRY_CODE":"US","OBJECT_NAME":"STARLINK-3967","RA_OF_ASC_NODE":"137.8295","APOAPSIS":"540.824","RCS_SIZE":"LARGE","OBJECT_TYPE":"PAYLOAD","NORAD_CAT_ID":"52636","DECAY_DATE":null,"MEAN_MOTION_DDOT":"0.0000000000000","MEAN_ELEMENT_THEORY":"SGP4","SEMIMAJOR_AXIS":"6917.895","TIME_SYSTEM":"UTC","LAUNCH_DATE":"2022-05-14","OBJECT_ID":"2022-052AQ","REF_FRAME":"TEME","SITE":"AFETR","PERIOD":"95.438","TLE_LINE2":"2 52636  53.2171 137.8295 0001538  68.3023 291.8133 15.08835133 21701"},{"COUNTRY_CODE":"US","OBJECT_NAME":"STARLINK-3961","RA_OF_ASC_NODE":"127.6695","APOAPSIS":"540.954","RCS_SIZE":"LARGE","OBJECT_TYPE":"PAYLOAD","NORAD_CAT_ID":"52637","DECAY_DATE":null,"MEAN_MOTION_DDOT":"0.0000000000000","MEAN_ELEMENT_THEORY":"SGP4","SEMIMAJOR_AXIS":"6917.917","TIME_SYSTEM":"UTC","LAUNCH_DATE":"2022-05-14","OBJECT_ID":"2022-052AR","REF_FRAME":"TEME","SITE":"AFETR","PERIOD":"95.438","TLE_LINE2":"2 52637  53.2171 127.6695 0001694  56.1268 303.9886 15.08827974 22651","ECCENTRICITY":"0.00016940","MEAN_MOTION":"15.08827974","INCLINATION":"53.2171","MEAN_MOTION_DOT":"-0.00001755","CLASSIFICATION_TYPE":"U","FILE":"3589751","TLE_LINE1":"1 52637U 22052AR  22275.88396706 -.00001755  00000-0 -92208-4 0  9994","ARG_OF_PERICENTER":"56.1268","BSTAR":"-0.00009220800000","EPOCH":"2022-10-02T21:12:54.753984","ELEMENT_SET_NO":"999","EPHEMERIS_TYPE":"0","PERIAPSIS":"538.610","REV_AT_EPOCH":"2265","MEAN_ANOMALY":"303.9886","CENTER_NAME":"EARTH","GP_ID":"214051677"}];
